0 COSMOS 1579 COOLANT
1 28273U 84069AJ  13277.91282956  .00000080  00000-0  13487-3 0  3595
2 28273 065.0492 109.6916 0044224 185.2611 174.8084 13.90584013487748
0 COSMOS 1579 COOLANT
1 28273U 84069AJ  13280.14226004  .00000104  00000-0  15431-3 0  3606
2 28273 065.0474 103.8662 0045414 184.1945 175.8830 13.90585110488056
0 COSMOS 1579 COOLANT
1 28273U 84069AJ  13284.09770177  .00000099  00000-0  15040-3 0  3619
2 28273 065.0481 093.5321 0045418 182.8623 177.2169 13.90586566488601
0 COSMOS 1579 COOLANT
1 28273U 84069AJ  13290.78598821  .00000102  00000-0  15281-3 0  3629
2 28273 065.0480 076.0569 0045354 180.6520 179.4520 13.90589197489532
